name,created_by,sport,addr:unit,opening_hours,phone,website,addr:street,addr:city,addr:housenumber,addr:postcode,addr:province,operator,source,layer,name:en,golf,surface,contact:website,addr:borough,alt_name,email,contact:city,contact:housenumber,contact:postcode,contact:province,contact:street,golf:course,name:fr,wikidata,access,contact:phone,attribution,building,canvec:CODE,canvec:UUID,abandoned,addr:suburb,internet_access,phone:mnemonic,wikipedia,landuse,note,opening_hours:signed,type,wheelchair,addr:source,disused,contact:facebook,addr:country,area_m2,lat,lon,province,gcid
Club de Golf Le Blainvillier,,golf,,,,,,,,,,,,,,,,,,,,,,,,,,,,,,,,,,,,,,,,,,multipolygon,,,,,,2287823.2611896107,45.7148911418952,-73.87010596816091,Quebec,QC00029
Club de Golf Royal Montreal,,golf,,,,,,,,,,,CanVec 6.0 - NRCan,,,,,,,,,,,,,,,,Q1420672,,,,,,,,,,,fr:Club de golf Royal Montréal,,,,,,,,,,1825250.9982174526,45.49517385532006,-73.90464781244073,Quebec,QC00153
Golf Continental,,,,,,,,,,,,,,,,,,,,,,,,,,,,,,,,,,,,,,,,,,,,,,,,,,1608944.3348387324,45.982364110919306,-73.12689276045872,Quebec,QC00350
Club de golf La Tempête,,golf,,,,,,,,,,,,,,,,,,,,,,,,,,,,,,,,,,,,,,,,,,,,,,,,1608034.3711959247,46.66906841154616,-71.21156646483529,Quebec,QC00310
Parcours Du Cerf,,,,,,http://www.parcoursducerf.com/,,,,,,,,,,,,,,,,,,,,,,,,,,,,,,,,,,,,,,multipolygon,,,,,,1603140.194804531,45.55691669632282,-73.45047143361788,Quebec,QC00018
Le Club de Golf Summerlea,,golf,,,,,Route de Lotbinière,Vaudreuil-Dorion,1000,,QC,,,,Summerlea Golf & Country Club,,,,,,,,,,,,,Le Club de Golf Summerlea,,,,,,,,,,,,,,,,multipolygon,,,,,,1602124.5300232396,45.33584171858965,-73.98570933075362,Quebec,QC00055
Club de golf Le Versant,,,,,,,,,,,,,,,,,,,,,,,,,,,,,,,,,,,,,,,,,,,,,,,,,,1587213.469947215,45.69932462425028,-73.7083083644576,Quebec,QC00407
Golf Lachute,,,,,,,,,,,,,,,,,,,,,,,,,,,,,,,,,,,,,,,,,,,,,,,,,,1556620.8851574573,45.64780648183636,-74.31942513885883,Quebec,QC00408
Unknown Golf Course,,golf,,,,,,,,,,,NRCan-CanVec-7.0,,,,,,,,,,,,,,,,,,,,,,,,,,,,,,,,,,,,,1543635.846509595,46.90273389946545,-71.15040923002299,Quebec,QC00309
Club de Golf Hillsdale,,,,,,,,,,,,,,,,,,,,,,,,,,,,,,,,,,,,,,,,,,,,,,,,,,1490656.5113956225,45.64866709206259,-73.90195922082593,Quebec,QC00270
Elm Ridge Country Club,,golf,,,,,,,,,,,CanVec 6.0 - NRCan,,,,,,,,,,,,,,,,,,,,,,,,,,,,,,,,,,,,,1480380.0426363933,45.4828790606395,-73.91577860291794,Quebec,QC00154
Club de golf le Mirage,,,,,,,,,,,,,,,,,,,,,,,,,,,,,,,,,,,,,,,,,,,,,,,,,,1430671.678317296,45.74364812126061,-73.72220068948627,Quebec,QC00110
Club De Golf St-Anicet,,golf,,,,,,,,,,,NRCan-CanVec-7.0,,,,,,,,,,,,,,,,,,,,,,,,,,,,,,,multipolygon,,,,,,1428073.6447092937,45.15973048863892,-74.29369154715091,Quebec,QC00085
Club de Golf Les Quatre Domaines,,golf,,,,,,,,,,,,,,,,,,,,,,,,,,,,,,,,,,,,,,,,,,,,,,,,1408350.65199865,45.66790673027813,-73.91231388992367,Quebec,QC00261
Club de Golf St-Raphaël,,golf,,,,,,,,,,,CanVec 6.0 - NRCan,,,,,,,,,,,,,,,,,,,,,,,,,,,,,,,multipolygon,,,,,,1399118.3828581176,45.5045321725628,-73.89485688937738,Quebec,QC00020
Laval-Sur-Le-Lac,,,,,,,,,,,,,,,,,,,,,,,,,,,,,,,,,,,,,,,,,,,,,,,,,,1376218.1573256191,45.53045108371144,-73.87037799696552,Quebec,QC00104
Club de Golf de Waterloo,,,,,,,,,,,,,,,,,,,,,,,,,,,,,,,,,,,,,,,,,,,,multipolygon,,,,,,1327744.2229239154,45.357306614042756,-72.47895700100042,Quebec,QC00074
Club de Golf Gatineau,,golf,,,,,,,,,,,CanVec 6.0 - NRCan,,,,,,,,,,,,,,,,,,,,,,,,,,,,,,,multipolygon,,,,,,1316010.7278121847,45.405648463311174,-75.81877914092134,Quebec,QC00083
Club de golf Royal Bromont,,golf,,,,,,,,,,,,,,,,,,,,,,,,,,,,,,,,,,,,,,,,,,multipolygon,,,,,,1307463.2148549957,45.323814317596124,-72.66715210894463,Quebec,QC00027
Hemmingford Sport & Country Club,,golf,,,,,,,,,,,NRCan-CanVec-7.0,,,,,,,,,,,,,,,,,,,,,,,,,,,,,,,,,,,,,1302144.0820620721,45.03976690620097,-73.60286241174344,Quebec,QC00252
Golf St-François,,,,,,,Boulevard des Mille-Îles,Laval,3000,,,,,,,,,,,,,,,,,,,,,,,,,,,,,,,,,,,,,,,,,1286697.6683642617,45.668151130635614,-73.7076547389966,Quebec,QC00136
Club de Golf de la Vallée du Richelieu,,,,,,,,,,,,,,,,,,,,,,,,,,,,,,,,,,,,,,,,,,,,,,,,,,1241059.6938757312,45.59618410245759,-73.28442464417566,Quebec,QC00125
Club de golf de Venise,,golf,,,,,,,,,,,,,,,,,,,,,,,,,,,,,,,,,,,,,,,,,,multipolygon,,,,,,1190275.4721562269,45.30022163059737,-72.06310091748684,Quebec,QC00049
Club de Golf Montcalm Inc,,,,,,,,,,,,,,,,,,,,,,,,,,,,,,,,,,,,,,,,,,,,,,,,,,1165275.3441372663,46.02749461838659,-73.62041305935723,Quebec,QC00091
Golf du Domaine Laforest,,,,,,,,,,,,,,,,,,,,,,,,,,,,,,,,,,,,,,,,,,,,,,,,,,1161771.5055332961,47.98669106156607,-70.08517554128555,Quebec,QC00266
Club de Golf Belle Vue,,golf,,,,,,,,,,,,,,,,,,,,,,,,,,,,,,,,,,,,,,,,,,,,,,,,1158880.9646839888,45.34543984847703,-73.79069644452663,Quebec,QC00255
Club de golf Terrebonne,,,,,,,,,,,,,,,,,,,,,,,,,,,,,,,,,,,,,,,,,,,,,,,,,,1117752.7665719138,45.74286237222487,-73.73191493742914,Quebec,QC00109
Club de Golf Glendale,,,,,,,,,,,,,,,,,,,,,,,,,,,,,,,,,,,,,,,,,,,,,,,,,,1112540.080378663,45.644732847625804,-73.94663527399273,Quebec,QC00272
Club de Golf International 2000,,,,,,,,,,,,,NRCan-CanVec-7.0,,,,,,,,,,,,,,,,,,,,,,,,,,,,,,,,,,,,,1092712.668792752,45.012680380057105,-73.42170727701907,Quebec,QC00245
Golf Dorval,,,,,+1 514 6314653,http://www.golfdorval.com,,,,,,,,,,,,,,,info@golfdorval.com,,,,,,,,,,,,,,,,,,,,,,,,,,,,,1090418.7224114363,45.47169771412655,-73.7721204743249,Quebec,QC00094
Mont-Cascades,,golf,,,,,,,,,,,NRCan-CanVec-7.0,,,,,,,,,,,,,,,,,,,,,,,,,,,,,,,,,,,,,1020540.7394584693,45.61075358544706,-75.88536929406584,Quebec,QC00203
2454-2364 Bd Don-Quichotte,,,,,,,,,,,,,,,,,,,,,,,,,,,,,,,,,,,,,,,,,,,,multipolygon,,,,,,1008493.9369943439,45.36839008457212,-73.86365723056694,Quebec,QC00073
Club de Golf de Lanaudière,,,,,,,,,,,,,,,,,,,,,,,,,,,,,,,,,,,,,,,,,,,,,,,,,,992152.073828122,45.801525164669705,-73.46339534284277,Quebec,QC00237
Club de golf La Madeleine,,,,,,,,,,,,,,,,,,,,,,,,,,,,,,,,,,,,,,,,,,,,,,,,,,991606.869976035,45.606664831146,-73.12684147492553,Quebec,QC00119
Golf Granby St-Paul,,golf,,,,,,,,,,,CanVec 6.0 - NRCan,,,,,,,,,,,,,,,,,,,,,,,,,,,,,,,,,,,,,988059.2274300666,45.42984516080119,-72.79546835943782,Quebec,QC00146
Golf Granby St-Paul,,golf,,,,,,,,,,,CanVec 6.0 - NRCan,,,,,,,,,,,,,,,,,,,,,,,,,,,,,,,,,,,,,988059.2274300666,45.42984516080119,-72.79546835943782,Quebec,QC00145
Club de golf Verchères,,golf,,,,,,,,,,,CanVec 6.0 - NRCan,,,,,,,,,,,,,,,,,,,,,,,,,,,,,,,,,,,,,986559.2925955188,45.7149757554757,-73.3154822657814,Quebec,QC00124
Royal Ottawa Golf Club,,golf,,,,https://royalottawagolfclub.com/,Aylmer Road,Gatineau,1405,J9H 7L2,QC,,CanVec 6.0 - NRCan,,,,,,,,,,,,,,,,Q7374659,,,,,,,,,,,,,,,,,,,,,983932.2248055652,45.4185669434324,-75.77021619128051,Quebec,QC00166
Club de Golf le Griffon des Sources,,golf,,,,,,,,,,,NRCan-CanVec-7.0,,,,,,,,,,,,,,,,,,,,,,,,,,,,,,,,,,,,,980152.295505488,45.63425916902628,-74.23341826775824,Quebec,QC00175
Club De Golf De Berthier,,,,,,,,,,,,,,,,,,,,,,,,,,,,,,,,,,,,,,,,,,,,,,,,,,958209.4615591684,46.04472712187192,-73.19158179221346,Quebec,QC00345
Club de golf Memphrémagog,,,,,,,Chemin Gendron,Magog,700,,,,,,,,,,,,,,,,,,,,,,,,,,,,,,,,,,,,,,,,,948305.4795572202,45.17150697762589,-72.20892953808448,Quebec,QC00326
Le grand Portneuf,,,,,,,,,,,,,,,,,,,,,,,,,,,,,,,,,,,,,,,,,,,,,,,,,,947617.1493557934,46.78966577242763,-71.74267593072189,Quebec,QC00306
Le grand Portneuf,,,,,,,,,,,,,,,,,,,,,,,,,,,,,,,,,,,,,,,,,,,,,,,,,,947617.1493557934,46.78966577242763,-71.74267593072189,Quebec,QC00307
Club de Golf du Manoir Richelieu,,golf,,,,,,,,,,,NRCan-CanVec-7.0,,,,,,,,,,,,,,,,,,,,,,,,,,,,,,,multipolygon,,,,,,914859.7490326467,47.616161591529114,-70.16070554434289,Quebec,QC00040
Club de golf Whitlock West,,golf,,,,,Côte Saint-Charles,Hudson,128,,QC,,,,Whitlock West Golf Club,,,,,,,,,,,,,Club de golf Whitlock West,,,,,,,,,,,,,,,,multipolygon,,,,,,914088.1559725887,45.45459899918053,-74.16539722200848,Quebec,QC00059
Club de golf Whitlock West,,golf,,,,,Côte Saint-Charles,Hudson,128,,QC,,,,Whitlock West Golf Club,,,,,,,,,,,,,Club de golf Whitlock West,,,,,,,,,,,,,,,,multipolygon,,,,,,914088.1559725887,45.45459899918053,-74.16539722200848,Quebec,QC00058
La Bête,,,,,,,,,,,,,,,,,,,,,,,,,,,,,,,,,,,,,,,,,,,,,,,,,,902087.1283514976,46.14736725541112,-74.60553709663128,Quebec,QC00336
Club de Golf Stoneham,,,,,,,,,,,,,,,,,,,,,,,,,,,,,,,,,,,,,,,,,,,,,,,,,,901448.7573651851,46.99129148532747,-71.37454527682127,Quebec,QC00113
Golf Domaine de Rouville,,golf,,,,,,,,,,,CanVec 6.0 - NRCan,,,,,,,,,,,,,,,,,,,,,,,,,,,,,,,,,,,,,900835.8537557172,45.511891981195895,-73.15363568371343,Quebec,QC00152
Auberge & Club de golf Heritage,,,,,,,,,,,,,,,,,,,,,,,,,,,,,,,,,,,,,,,,,,,,,,,,,,897944.5214442896,45.76370110224027,-74.97554621503974,Quebec,QC00354
Club de Golf Le Drummond,,golf,,,,,,,,,,,NRCan-CanVec-7.0,,,,,,,,,,,,,,,,,,,,,,,,,,,,,,,,,,,,,889274.6362876754,45.95573691431572,-72.60700894789176,Quebec,QC00183
Club de Golf Montmagny,,,,,,,ch. du Golf,Montmagny,473,G5V3R9,Quebec,,,,,,,,,,,,,,,,,,,,,,,,,,,,,,,,,multipolygon,,,,,,875808.623124434,46.96529177458668,-70.4973272593663,Quebec,QC00078
Dufferin Heights Country Club,,,,,,,,,,,,,,,,,,,,,,,,,,,,,,,,,,,,,,,,,,,,,,,,,,869104.0314405392,45.06977670474361,-72.06375029539242,Quebec,QC00107
Club de Golf Mirabel,,,,,,,,,,,,,,,,,,,,,,,,,,,,,,,,,,,,,,,,,,,,multipolygon,,,,,,861872.3230118756,45.71516991192611,-73.89973725449403,Quebec,QC00046
Club de Golf Milby,,golf,,,,,Chemin Bowers,,2200,,,,,,,,,,,,,,,,,,,,,,,,,,,,,,,,,,,multipolygon,,,,,,859213.7374422533,45.323644312574494,-71.82070626320066,Quebec,QC00048
Golf Mont Ste-Marie,,golf,,,,,,,,,,,NRCan-CanVec-7.0,,,,,,,,,,,,,,,,,,,,,,,,,,,,,,,,,,,,,846476.8288311372,45.94275748655123,-75.89154788390609,Quebec,QC00233
Club de golf Dorchester,,golf,,,,,,,,,,,NRCan-CanVec-7.0,,,,,,,,,,,,,,,,,,,,,,,,,,,,,,,,,,,,,837515.8274988612,46.4888688742058,-70.8337465500418,Quebec,QC00201
Club de Golf Cowansville,,golf,,,,,,,,,,,NRCan-CanVec-7.0,,,,,,,,,,,,,,,,,,,,,,,,,,,,,,,multipolygon,,,,,,814834.4150969605,45.221254225960195,-72.82196412707707,Quebec,QC00075
Golf Sainte-Marguerite,,golf,,,,,"Tue, Thom",Clarke City,1,,Québec,,CanVec 6.0 - NRCan,,,,,,,,,,,,,,,,,,,,,,,,,,,,,,,,,,,,,807800.579963889,50.16966392436694,-66.61794840947631,Quebec,QC00143
Rue Thom,,,,,,,,,,,,,,,,,,,,,,,,,,,,,,,,,,,,,,,,,,,,,,,,,,807740.6722189715,50.169663702187094,-66.61794836157844,Quebec,QC00396
Club de golf Lotbinière,,golf,,,,,,,,,,,NRCan-CanVec-7.0,,,,,,,,,,,,,,,,,,,,,,,,,,,,,,,,,,,,,799173.8292819118,46.58679504269972,-71.36275088414887,Quebec,QC00211
Club de Golf Islesmere,,golf,,,,,,,,,,,,,,,,,,,,,,,,,,,,,,,,,,,,,,,,,,,,,,,,796565.0388832418,45.52898201852045,-73.8502404791111,Quebec,QC00127
Club de golf Mont-Gabriel,,,,,,,,,,,,,,,,,,,,,,,,,,,,,,,,,,,,,,,,,,,,,,,,,,781395.1054810907,45.92293300141093,-74.16616785219182,Quebec,QC00321
Club de Golf Rosemère Fontainebleau,,,,,,,,,,,,,,,,,,,,,,,,,,,,,,,,,,,,,,,,,,,,,,,,,,770212.4919573918,45.66258451725319,-73.81943851092687,Quebec,QC00095
UFO,,golf,,,,golfufo.com,,,,,,,,,,,,,,,,,,,,,,,,,,,,,,,,,,,,,,,,,,,,766326.5579647361,45.549724421699985,-73.84729042274904,Quebec,QC00135
Golf Royal Laurentien,,golf,,,,,,,,,,,,,,,,,,,,,,,,,,,,,,,,,,,,,,,,,,multipolygon,,,,,,764447.0659459694,46.108265845338515,-74.40458044674439,Quebec,QC00032
Sherbrooke,,,,,,,Rue du Fer-Droit,,3455,,,,,,,,,,,,,,,,,,,,,,,,,,,,,,,,,,,multipolygon,,,,,,760910.0348739683,45.44274607057665,-71.96661851006996,Quebec,QC00019
Club de Golf de Farnham,,golf,,,,,,,,,,,CanVec 6.0 - NRCan,,,,,,,,,,,,,,,,,,,,,,,,,,,,,,,,,,,,,759956.6739321494,45.25818048613769,-72.94961227041092,Quebec,QC00144
Club de golf de Plessiville,,golf,,,,,,,,,,,Bing,,,,,,,,,,,,,,,,,,,,,,,,,,,,,,,,,,,,,755170.9262647841,46.26188496554206,-71.72397926107071,Quebec,QC00197
Club de Golf Le Diamant,,,,,,,montee Clément,Mirabel,10466,,,,,,,,,,,,,,,,,,,,,,,,,,,,,,,,,,,,,,,,,750519.4531792391,45.65621048180183,-73.9963339599942,Quebec,QC00271
Club Sports Belvédère,,,,,,,,,,,,,,,,,,,,,,,,,,,,,,,,,,,,,,,,,,,,multipolygon,,,,,,745116.8919559751,48.08762555664424,-77.79659524412433,Quebec,QC00086
Club de Golf Hautes Plaines,,,,,,,Avenue de la Citadelle,,75,J8Z 3L1,,,,,,,,,,,,,,,,,,,,,,,,,,,,,,,,Inferred boundaries,,multipolygon,,,,,,741018.9905990398,45.47682728999596,-75.76070277669783,Quebec,QC00022
Le Grand Vallon,,golf,,,,https://legrandvallon.com,Rue Beaumont,Beaupré,100,,,,NRCan-CanVec-7.0,,,,,,,,,,,,,,,,,,,,,,,,,,,,,,,,,,,,,736770.8363260713,47.067849511007324,-70.91255765129264,Quebec,QC00225
The Kanawaki Golf Club,,,,,,,,,,,,,,,,,,,,,,,,,,,,,,,,,,,,,,,,,,,,,,,,,,734820.2213482369,45.40072428409758,-73.66300416268894,Quebec,QC00129
Acton Vale,,golf,,,,,,,,,,,NRCan-CanVec-7.0,,,,,,,,,,,,,,,,,,,,,,,,,,,,,,,,,,,,,733036.7339087726,45.650911916807516,-72.60285647152013,Quebec,QC00200
Ancien club de golf le Boisé,,,,,,,,,,,,,,,,,,,,,,,,,,,,,,,,,,,,,,,,,,,,,,,,,,727824.8459012648,45.71759226862758,-73.633301911714,Quebec,QC00108
Golf Château Bromont,,golf,,,,,,,,,,,CanVec 6.0 - NRCan,,,,,,,,,,,,,,,,,,,,,,,,,,,,,,,,,,,,,716596.8872821559,45.30842561713837,-72.64227341207123,Quebec,QC00148
Club De Golf Val Des Lacs,,golf,,,,,,,,,,,NRCan-CanVec-10.0,,,,,,,,,,,,,,,,,,,,,,,,,,,,,,,,,,,,,712939.1993089167,45.81415374947558,-73.94881619829617,Quebec,QC00280
Club de Golf Falcon,,,,,,,Rue de Cambridge,Hudson,59,,QC,,,,Falcon Golf Club,,,,,,,,,,,,,Club de Golf Falcon,,,,,,,,,,,,,,,,,,,,,,711308.1607101565,45.46117587557781,-74.17565429425532,Quebec,QC00318
Club de Golf Falcon,,,,,,,Rue de Cambridge,Hudson,59,,QC,,,,Falcon Golf Club,,,,,,,,,,,,,Club de Golf Falcon,,,,,,,,,,,,,,,,,,,,,,711308.1607101565,45.46117587557781,-74.17565429425532,Quebec,QC00319
Club de Golf Les Dunes,,,,,,,,,,,,,Yahoo,,,,,,,,,,,,,,,,,,,,,,,,,,,,,,,,,,,,,711076.5311414526,45.99559963045339,-73.15330041688745,Quebec,QC00123
Golf & Hôtel Plaza Stastny,,golf,,,,https://www.hotelgolfstastny.com/,,,,,,,,,,,,,,,,,,,,,,,,,,,,,,,,,,,,,,,,,,,,709964.7656587502,46.71871373994798,-71.31466266580033,Quebec,QC00292
Golf de la Faune,,golf,,,,,,,,,,,Bing,,,,,,,,,,,,,,,,,,,,,,,,,,,,,,,,,,,,,705240.9318396264,46.87826910411556,-71.29922274447567,Quebec,QC00300
Golf de l'Île de Montréal - Parcours de l'Irlande,,,,,,,Rue Damien-Gauthier,Montréal,3700,,QC,Club de Golf de l'Île de Montréal,,,,,,,,,,,,,,,,,,,,,,,,,,,,,,,,,,,,,,705031.9102748674,45.69071489788139,-73.50721568828003,Quebec,QC00132
Club de Golf Royal-Estrie,,golf,,,,,,,,,,,NRCan-CanVec-7.0,,,,,,,,,,,,,,,,,,,,,,,,,,,,,,,,,,,,,704383.3992228574,45.785096730453695,-71.93366897578352,Quebec,QC00178
Club de golf de Cap Rouge,,golf,,,,,,,,,,,NRCan-CanVec-7.0,,,,,,,,,,,,,,,,,,,,,,,,,,,,,,,,,,,,,704216.9467794725,46.74319950424149,-71.3720051288934,Quebec,QC00210
Golf St-Césaire,,,,,,,,,,,,,,,,,,,,,,,,,,,,,,,,,,,,,,,,,,,,,,,,,,698967.1779714643,45.39146239256023,-73.04038689130928,Quebec,QC00356
Club de Golf Lac-St-Jean,,,,,+1 418 3458877,https://www.golflacstjean.qc.ca/,,,,,,,,,,,,,,,info@golflacstjean.qc.ca,,,,,,,,,,,,,,,,,,,,,,,,,,,,,698140.8890631417,48.552213378922985,-71.75987572678432,Quebec,QC00357
Golf Le Champêtre,,golf,,,,,,,,,,,,,,,,,,,,,,,,,,,,,,,,,,,,,,,,,,,,,,,,690703.3753756842,45.796344439642716,-73.85672550596934,Quebec,QC00303
Club de Golf de Lac-Etchemin,,golf,,,,,,,,,,,NRCan-CanVec-7.0,,,,,,,,,,,,,,,,,,,,,,,,,,,,,,,,,,,,,690624.2960506001,46.4222810619053,-70.52280683321264,Quebec,QC00202
Golf Royal Charbourg,,,,,,,,,,,,,,,,,,,,,,,,,,,,,,,,,,,,,,,,,,,,,,,,,,689515.1431197969,46.927005634882065,-71.36428428024652,Quebec,QC00112
Golf de L'Auberivière,,,,,,,,,,,,,,,,,,,,,,,,,,,,,,,,,,,,,,,,,,,,,,,,,,688276.4929994729,46.76392403870907,-71.18427254731571,Quebec,QC00393
Saguenay,,golf,,,,,,,,,,,NRCan-CanVec-7.0,,,,,,,,,,,,,,,,,,,,,,,,,,,,,,,,,,,,,688243.8492907562,48.44851514208891,-71.17281972231588,Quebec,QC00240
Caughnawaga Golf Club,,,,,,,,,,,,,,,,,,,,,,,,,,,,,,,,,,,,,,,,,,,,,,,,,,688229.6584563601,45.38554705728987,-73.66740845897263,Quebec,QC00131
Golf de l'Île de Montréal,,,,,,,,,,,,,,,,,,,,,,,,,,,,,,,,,,,,,,,,,,,,,,,,,,688086.540990508,45.682810239126404,-73.52190226807448,Quebec,QC00133
Golf Inverness,,golf,,,,,,,,,,,NRCan-CanVec-7.0,,,,,,,,,,,,,,,,,,,,,,,,,,,,,,,,,,,,,668521.2772792428,45.25186044014083,-72.55801640566705,Quebec,QC00149
Club de Golf Capri,,,,,,,,,,,,,,,,,,,,,,,,,,,,,,,,,,,,,,,,,,,,,,,,,,668078.5739976872,45.72686285779963,-74.14246172455886,Quebec,QC00098
Club de golf Lac Saint-Joseph,,,,,+1-866-799-2078,https://golflacst-joseph.com/,Route de Fossambault,,5292,,,,NRCan-CanVec-7.0,,,,,,,,,,,,,,,,,,,,,,,,,,,,,,,,,,,,,664145.830551662,46.85424857195708,-71.60980346961084,Quebec,QC00224
Club de Golf Triangle d'Or,,golf,,,,,,,,,,,NRCan-CanVec-7.0,,,,,,,,,,,,,,,,,,,,,,,,,,,,,,,,,,,,,663349.1001567894,45.242578923452456,-73.59243682248184,Quebec,QC00250
Club de golf Fort Prével,,golf,,,,,,,,,,,NRCan-CanVec-7.0,,,,,,,,,,,,,,,,,,,,,,,,,,,,,,,multipolygon,,,,,,662715.8217735009,48.695355624646055,-64.26605051033964,Quebec,QC00057
Club de Golf Champlain,,golf,,,,https://golfchamplain.com/,Aylmer Rd,Gatineau,1145,,Québec,,,,,,,,,,,,,,,,,,,,,,,,,,,,,,,,,multipolygon,,,,,,660431.0119435304,45.41558036736454,-75.78105594123379,Quebec,QC00116
Club De Golf Ki-8-Eb,,golf,,,,,Boulevard des Forges,Trois-Rivières,8200,,QC,,,,,,,,,,,,,,,,,,,,,,,,,,,,,,,,,,,,,,,660223.9564059174,46.38501154710222,-72.61962007205501,Quebec,QC00195
Club de Golf les Patriotes,,,,,,,,,,,,,,,,,,,,,,,,,,,,,,,,,,,,,,,,,,,,,,,,,,660033.3785900675,45.943326009493894,-73.13809311355821,Quebec,QC00365
Golf Le Memorial,,golf,,,,,,,,,,,NRCan-CanVec-7.0,,,,,,,,,,,,,,,,,,,,,,,,,,,,,,,,,,,,,657297.1767284538,46.546563716770535,-72.70894531947822,Quebec,QC00206
Mount Bruno Country Club,,,,,,,,,,,,,,,,,,,,,,,,,,,,,,,,,,,,,,,,,,,,,,,,,,657092.4243564842,45.52990692235648,-73.31429094995637,Quebec,QC00096
Les Vieux-Moulins Golf Club,,,,,,,,,,,,,,,,,,,,,,,,,,,,,,,,,,,,,,,,,,,,,,,,,,653108.4397365897,45.41852680404666,-75.86281582336686,Quebec,QC00167
Club de Golf Montpellier,,golf,,,,,,,,,,,NRCan-CanVec-7.0,,,,,,,,,,,,,,,,,,,,,,,,,,,,,,,,,,,,,648858.421351707,45.86359497218538,-75.12030207819586,Quebec,QC00235
Club de golf Hériot,,golf,,,,,,,,,,,NRCan-CanVec-7.0,,,,,,,,,,,,,,,,,,,,,,,,,,,,,,,multipolygon,,,,,,647852.8039540587,45.802569936063065,-72.4460162372433,Quebec,QC00047
Club de Golf le Victorien,,golf,,,,,,,,,,,NRCan-CanVec-7.0,,,,,,,,,,,,,,,,,,,,,,,,,,,,,,,,,,,,,647691.164883291,45.64157776933797,-74.11796723148855,Quebec,QC00174
Club de golf Rivière-du-Loup,,golf,,,,,,,,,,,NRCan-CanVec-7.0,,,,,,,,,,,,,,,,,,,,,,,,,,,,,,,,,,,,,641700.3835709427,47.80444180891818,-69.57734523403413,Quebec,QC00177
Club de Golf Saint-Laurent,,golf,,,,,,,,,,,NRCan-CanVec-7.0,,,,,,,,,,,,,,,,,,,,,,,,,,,,,,,,,,,,,640796.8347044997,46.88582985508259,-70.9882576968348,Quebec,QC00222
Kingsway Golf and Country Club,,golf,,,,https://golfkingsway.ca/en/,Chemin de la Montagne,Québec,1461,,,,CanVec 6.0 - NRCan,,,,,,,,,,,,,,,,,,,,,,,,,,,,,,,,,,,,,640104.9099263232,45.47341104143162,-75.85987851685758,Quebec,QC00164
Club de golf Bonniebrook,,golf,,,,,,,,,,,,,,,,,,,,,,,,,,,,,,,,,,,,,,,,,,multipolygon,,,,,,638465.1282189067,45.7501662325169,-74.10322389466485,Quebec,QC00030
Golf des Îles,,,,,,,,,,,,,,,,,,,,,,,,,,,,,,,,,,,,,,,,,,,,,,,,,,637932.8260916399,45.6033945030882,-73.47542383829197,Quebec,QC00362
Club De Golf ARCN Senneterre,,golf,,,,,,,,,,,,,,,,,,,,,,,,,,,,,,,,,,,,,,,,,,,,,,,,637381.8419151076,48.40053702574202,-77.26197081618157,Quebec,QC00299
Club de Golf Piedmont,,golf,,,,,,,,,,,,,,,,,,,,,,,,,,,,,,,,,,,,,,,,,,,,,,,,637000.5589029571,45.91610872286232,-74.1374544851407,Quebec,QC00285
Club de Golf Thetford,,golf,,,,,,,,,,,,,,,,,,,,,,,,,,,,,,,,,,,,,,,,,,,,,,,,634912.7204698037,46.094223178619345,-71.2813939898184,Quebec,QC00185
Club De Golf Royal Papineau,,golf,,,,,,,,,,,NRCan-CanVec-7.0,,,,,,,,,,,,,,,,,,,,,,,,,,,,,,,,,,,,,631597.0345428528,45.83044610185778,-75.53678420133484,Quebec,QC00234
Club de golf l'Empress,,,,,,,,,,,,,,,,,,,,,,,,,,,,,,,,,,,,,,,,,,,,multipolygon,,,,,,630842.1128187145,48.50155658201805,-68.43995969938699,Quebec,QC00077
Club de Golf Beauceville,,,,,,,,,,,,,,,,,,,,,,,,,,,,,,,,,,,,,,,,,,,,,,,,,,627994.9843611033,46.26275934561235,-70.76192341615956,Quebec,QC00406
Club de Golf WindMill Heights,,golf,,,,,,,,,,,,,,,,,,,,,,,,,,,,,,,,,,,,,,,,,,,,,,,,623409.6868349847,45.35766382284156,-73.90352441919089,Quebec,QC00182
Club de golf Lorette,,,,,,,,,,,,,,,,,,,,,,,,,,,,,,,,,,,,,,,,,,,,,,,,,,621335.2603279875,46.8595998346815,-71.3808271226443,Quebec,QC00106
Club de Golf St-Georges,,golf,,,,,,,,,,,NRCan-CanVec-7.0,,,,,,,,,,,,,,,,,,,,,,,,,,,,,,,,,,,,,619915.6951375719,46.19279552466305,-70.61050735187774,Quebec,QC00187
Club De Golf Des Bois-Francs,,,,,,,Rue du Lac Nord,,25,,,,,,,,,,,,,,,,,,,,,,,,,,,,,,,,,,,,,,,,,619242.5773412341,46.21946596003275,-71.93515031303193,Quebec,QC00348
Club de Golf Tecumseh,,,,,,,,Gatineau,,J8P 8B6,QC,,Bing,,,,,,,,,,,,,,,,,,,,,,,,,,,,,,,,,,,,,618885.1242298487,45.47915569283723,-75.66986582106072,Quebec,QC00265
Club de Golf Beattie,,,,,,,,,,,,,,,,,,,,,,,,,,,,,,,,,,,,,,,,,,,,,,,,,,618436.548811004,48.78369971799838,-79.21805195743875,Quebec,QC00372
Club De Golf Louiseville,,golf,,,,,,,,,,,NRCan-CanVec-7.0,,,,,,,,,,,,,,,,,,,,,,,,,,,,,,,,,,,,,618223.5569674681,46.27039394565199,-72.96684270671633,Quebec,QC00190
Club De Golf Louiseville,,golf,,,,,,,,,,,NRCan-CanVec-7.0,,,,,,,,,,,,,,,,,,,,,,,,,,,,,,,,,,,,,618223.5569674681,46.27039394565199,-72.96684270671633,Quebec,QC00191
Club de Golf St-Pamphile,,,,,,,,,,,,,,,,,,,,,,,,,,,,,,,,,,,,,,,,,,,,,,,,,,616084.8365612732,47.021947651612614,-69.79002955642818,Quebec,QC00366
Club de Golf St-Pamphile,,,,,,,,,,,,,,,,,,,,,,,,,,,,,,,,,,,,,,,,,,,,,,,,,,616084.8365612732,47.021947651612614,-69.79002955642818,Quebec,QC00367
Club De Golf De Buckingham,,golf,,,,,,,,,,,NRCan-CanVec-10.0;Bing,,,,,,,,,,,,,,,,,,,,,,,,,,,,,,,multipolygon,,,,,,610691.7085012173,45.599845317723336,-75.41211673373158,Quebec,QC00080
Club de golf de Chicoutimi,,golf,,,+1-418-549-6608,,,,,,,,CanVec 6.0 - NRCan;https://www.golfchicoutimi.com/,,,,,,,,,Chicoutimi,2743,G7H 5B1,Québec,Boulevard Talbot,,,,,,,,,,,,,,,,,,,,,,,,607209.9483719912,48.374782027505255,-71.07908186104223,Quebec,QC00142
Club de Golf Bellechasse,,golf,,,,,,,,,,,NRCan-CanVec-7.0,,,,,,,,,,,,,,,,,,,,,,,,,,,,,,,,,,,,,605426.2559415312,46.62159875230627,-70.69942994790307,Quebec,QC00219
Victoriaville,,golf,,,,,,,,,,,,,,,,,,,,,,,,,,,,,,,,,,,,,,,,,,multipolygon,,,,,,604170.118582412,46.041965872919306,-71.94371160569254,Quebec,QC00033
Club de Golf de Joliette,,,,,,,,,,,,,,,,,,,,,,,,,,,,,,,,,,,,,,,,,,,,,,,,,,603798.7482987467,46.050825102201394,-73.44691034243603,Quebec,QC00090
Club de Golf de l'Épiphanie,,,,,,,,,,,,,,,,,,,,,,,,,,,,,,,,,,,,,,,,,,,,,,,,,,603332.0184336139,45.86944274358027,-73.50750753178176,Quebec,QC00239
Club de golf des Légendes,,golf,,,,,,,,,,,,,,,,,,,,,,,,,,,,,,,,,,,,,,,,,,multipolygon,,,,,,603161.981573684,45.36731836040433,-73.2968454401429,Quebec,QC00031
Club de Golf Laurier,,,,,,,,,,,,,,,,,,,,,,,,,,,,,,,,,,,,,,,,,,,,,,,,,,601402.3188222176,46.107234051385014,-71.89757955122812,Quebec,QC00382
Club de Golf le Portage,,golf,,,,,,,,,,,NRCan-CanVec-7.0,,,,,,,,,,,,,,,,,,,,,,,,,,,,,,,,,,,,,599809.8764895053,45.83440819894517,-73.43686946965435,Quebec,QC00236
Golf le Rocher de Roxton-Pond,,golf,,,,,,,,,,,NRCan-CanVec-7.0,,,,,,,,,,,,,,,,,,,,,,,,,,,,,,,,,,,,,595611.2203998405,45.50943677061991,-72.62962765136247,Quebec,QC00199
Golf le Sélect,,,,,,,,,,,,,Bing,,,,,,,,,,,,,,,,,,,,,,,,,,,,,,,,,,,,,595170.9917746992,45.67075765290758,-74.2318740559138,Quebec,QC00291
Club de golf Le Grand Duc,,golf,,,,,Rue le Grand Duc,,99,,,,,,,,,,,,,,,,,,,,,,,,,,,,,,,,,,,,,,,,,591640.7367687293,45.83647919521603,-73.89311321148153,Quebec,QC00302
Club de golf Owl's Head,,golf,,,,,,,,,,,NRCan-CanVec-7.0,,,,,,,,,,,,,,,,,,,,,,,,,,,,,,,multipolygon,,,,,,590707.1376761657,45.066327258045476,-72.31684145641289,Quebec,QC00021
Edelweiss Golf and Country Club,,,,,+1-819-459-2331,http://golfedelweiss.wix.com/golfedelweiss,Chemin Edelweiss,,465,,,,,,,,,,,,,,,,,,,,,,,,,,,,,,,,,,,,,,,,,585415.4311811815,45.654608959054876,-75.86264380815503,Quebec,QC00330
Cristal,,,,,,,,,,,,,,,,,,,,,,,,,,,,,,,,,,,,,,,,,,,,,,,,,,584924.0594023962,46.18066903179951,-71.98874824444675,Quebec,QC00347
Club de golf Saint-Jean-de-Matha,,golf,,,,,,,,,,,CanVec 6.0 - NRCan,,,,,,,,,,,,,,,,,,,,,,,,,,,,,,,,,,,,,584034.4576996546,46.28806312688677,-73.56342581620208,Quebec,QC00163
Club de golf Saint-Jean-de-Matha,,golf,,,,,,,,,,,CanVec 6.0 - NRCan,,,,,,,,,,,,,,,,,,,,,,,,,,,,,,,,,,,,,584034.4576996546,46.28806312688677,-73.56342581620208,Quebec,QC00162
Club de Golf Meadowbrook,,,,,,,,,,,,,,,,,,,,,,,,,,,,,,,,,,,,,,,,,,,,multipolygon,,,,,,579026.4550405043,45.45453282370751,-73.67130495718622,Quebec,QC00028
Club de golf Le Marthelinois,,golf,,,,,,,,,,,,,,,,,,,,,,,,,,,,,,,,,,,,,,,,,,,,,,,,578178.5775651826,46.387807678831265,-72.50100284406295,Quebec,QC00313
Club de Golf de Bic,,golf,,,,,,,,,,,NRCan-CanVec-7.0,,,,,,,,,,,,,,,,,,,,,,,,,,,,,,,multipolygon,,,,,,573571.7519838427,48.37810693228804,-68.71335189071428,Quebec,QC00069
Club de Golf de Napierville,,,,,,,,,,,,,,,,,,,,,,,,,,,,,,,,,,,,,,,,,,,,,,,,,,572211.3818477212,45.185297757725955,-73.42638919972701,Quebec,QC00092
Club de Golf de Grand-Mère,,golf,,,,,,,,,,,NRCan-CanVec-7.0,,,,,,,,,,,,,,,,,,,,,,,,,,,,,,,,,,,,,572034.1577907545,46.62521504740426,-72.69274524420617,Quebec,QC00207
Saint-Jean-Port-Joli,,golf,,,,,,,,,,,NRCan-CanVec-7.0,,,,,,,,,,,,,,,,,,,,,,,,,,,,,,,,,,,,,567148.1418151343,47.1644340942973,-70.29461015831082,Quebec,QC00227
Trois-Rivières,,golf,,,,,,,,,,,NRCan-CanVec-7.0,,,,,,,,,,,,,,,,,,,,,,,,,,,,,,,,,,,,,566256.7984165682,46.392987645620664,-72.60742412176211,Quebec,QC00194
Club de golf de Baie St-Paul,,golf,,,,,,,,,,,NRCan-CanVec-7.0,,,,,,,,,,,,,,,,,,,,,,,,,,,,,,,,,,,,,564975.9055100518,47.44869911546091,-70.53272905397877,Quebec,QC00230
Golf Le Castor,,golf,,,,,,,,,,,NRCan-CanVec-7.0,,,,,,,,,,,,,,,,,,,,,,,,,,,,,,,,,,,,,563850.2599280368,46.913230177050615,-71.46407325830013,Quebec,QC00221
Club de golf de la Vallée du Témiscouata,,,,,,,,,,,,,,,,,,,,,,,,,,,,,,,,,,,,,,,,,,,,,,,,,,563393.0201349556,47.67446627610234,-68.95181555132513,Quebec,QC00385
Club de Golf Rivermead,,golf,,,,,,,,,,,CanVec 6.0 - NRCan,,Rivermead Golf Club,,,,,,,,,,,,,,Q7338264,,,,,,,,,,,,,,,,yes,,,,,563272.3147531992,45.39742677116765,-75.79103563224953,Quebec,QC00165
Golf Les Boisés de Joly,,,,,,,,,,,,,,,,,,,,,,,,,,,,,,,,,,,,,,,,,,,,,,,,,,562763.126910037,46.47827820683432,-71.6605985507601,Quebec,QC00355
Club de golf La seigneurie,,,,,,,,,,,,,,,,,,,,,,,,,,,,,,,,,,,,,,,,,,,,,,,,,,552639.6180234413,45.590218709506736,-73.17669455331608,Quebec,QC00262
Mont Adstock,,golf,,,,,,,,,,,,-1,,,,,,,,,,,,,,,,,,,,,,,,,,,,,,,,,,,,550310.1786543614,46.02825742414815,-71.18542960122412,Quebec,QC00186
Club de Golf St-Donat,,golf,,,+1-819-424-2658,,,,,,,,NRCan-CanVec-10.0,,,,,,,,,St-Donat,92,J0T 2C0,Québec,Route 329,,,,,,,,,,,,,,,,,,,,,,,,549717.6946433163,46.29946518074118,-74.21052371115172,Quebec,QC00290
Club de golf Valleyfield,,,,,,,,,,,,,NRCan-CanVec-7.0,,,,,,,,,,,,,,,,,,,,,,,,,,,,,,,,,,,,,548200.614200263,45.29000942148125,-74.10489116276057,Quebec,QC00169
Lorraine,,,,,,,,,,,,,,,,,,,,,,,,,,,,,,,,,,,,,,,,,,,,,,,,,,547387.6668847936,45.65834487612763,-73.77965332105462,Quebec,QC00117
Club de Golf Lévis,,golf,,,,,,,,,,,,,Levis Golf Club,,,,,,,,,,,,,,,,,,,,,,,,,,,,,,,,,,,545109.3310348943,46.800001726859904,-71.16439670161533,Quebec,QC00121
Club de Golf Lévis,,golf,,,,,,,,,,,,,Levis Golf Club,,,,,,,,,,,,,,,,,,,,,,,,,,,,,,,,,,,545109.3310348943,46.800001726859904,-71.16439670161533,Quebec,QC00122
Club de Golf Lac Mégantic,,golf,,,,,,,,,,,CanVec 6.0 - NRCan,,,,,,,,,,,,,,,,,,,,,,,,,,,,,,,,,,,,,543919.8799453271,45.50418863986801,-70.86330750276682,Quebec,QC00159
Club de golf du Manoir des Sables,,golf,,,,,,,,,,,Bing,-1,,,,,,,,,,,,,,,,,,,,,,,,,,,,,,,,,,,,540909.8492771433,45.31874156727977,-72.16124814820337,Quebec,QC00140
Golf Candiac,,,,,,,,,,,,,,,,,,,,,,,,,,,,,,,,,,,,,,,,,,,,multipolygon,,,,,,539069.4973872368,45.38615114936396,-73.49877448786663,Quebec,QC00043
Golf de Sainte-Flore,,golf,,,,,,,,,,,NRCan-CanVec-7.0,,,,,,,,,,,,,,,,,,,,,,,,,,,,,,,,,,,,,538673.4504016538,46.6169153375112,-72.74604593210375,Quebec,QC00205
Club De Golf Rive Sud,,golf,,,,,,,,,,,CanVec 6.0 - NRCan,,,,,,,,,,,,,,,,,,,,,,,,,,,,,,,,,,,,,535735.8503508389,45.50519037291281,-73.30414217110408,Quebec,QC00151
Club de Golf Arundel,,,,,,,,,,,,,,,,,,,,,,,,,,,,,,,,,,,,,,,,,,,,,,,,,,532861.6615869,45.97956484273026,-74.62017338790824,Quebec,QC00097
Club de Golf East Angus,,golf,,,,,,,,,,,,,,,,,,,,,,,,,,,,,,,,,,,,,,,,,,multipolygon,,,,,,528914.9853722098,45.493683625078816,-71.66532564484773,Quebec,QC00062
Le Gaspésien,,,,,,,,,,,,,,,,,,,,,,,,,,,,,,,,,,,,,,,,,,,,,,,,,,527372.8264223812,49.11503348804131,-66.51875679505608,Quebec,QC00308
Golf des Saules,,,,,,,Des Saules,Rimouski,,,Québec,,,,,,,,,,,,,,,,,,,,,,,,,,,,,,,,,,,,,,,527247.8954148437,48.4172524648658,-68.57996447149758,Quebec,QC00314
Club de Golf Metaberoutin,,golf,,,,,,,,,,,,,,,,,,,,,,,,,,,,,,,,,,,,,,,,,,multipolygon,,,,,,525834.8703959577,46.36238920097325,-72.53716608275622,Quebec,QC00035
Club de Golf Drummondville,,golf,,,,,,,,,,,,,,,,,,,,,,,,,,,,,,,,,,,,,,,,,,multipolygon,,,,,,520817.3498163023,45.90092000654858,-72.49959413795817,Quebec,QC00045
Club de Golf de Crabtree,,golf,,,,,,,,,,,NRCan-CanVec-10.0,,,,,,,,,,,,,,,,,,,,,,,,,,,,,,,,,,,,,515514.1744146256,45.97348046111644,-73.51770195761196,Quebec,QC00283
Club de Golf Baie Comeau,,,,,,,,,,,,,,,,,,,,,,,,,,,,,,,,,,,,,,,,,,,,multipolygon,,,,,,515341.52666340943,49.209243607801824,-68.25945979463995,Quebec,QC00066
Club de Golf Port-Alfred,,golf,,,,https://golfportalfred.com/,,,,,,,NRCan-CanVec-7.0,,,,,,,,,,,,,,,,,,,,,,,,,,,,,,,multipolygon,,,,,,514984.0720555112,48.32006555643777,-70.8946709689465,Quebec,QC00068
Club de Golf Saint-Michel,,,,,,,,,,,,,,,,,,,,,,,,,,,,,,,,,,,,,,,,,,,,,,,,,,512265.1619814697,46.8636570816812,-70.87411008572082,Quebec,QC00391
Club de Golf Sainte-Marie,,golf,,,,,,,,,,,NRCan-CanVec-7.0,,,,,,,,,,,,,,,,,,,,,,,,,,,,,,,,,,,,,511838.83209052734,46.46160176284239,-71.07106624644702,Quebec,QC00196
Golf Mont-Ste-Anne,,,,,,https://www.golfmsa.com,Boulevard les Neiges,Saint-Ferréol-les-Neiges,1700,G0A 3R0,QC,,,,,,,,,,,,,,,,,,,,,,,,,,,,,,,,,,,,,,,511116.40014897095,47.073588643545975,-70.89153287011256,Quebec,QC00394
Club de Golf Bel-air,,golf,,,,,,,,,,,NRCan-CanVec-7.0,,,,,,,,,,,,,,,,,,,,,,,,,,,,,,,,,,,,,506238.7539914489,45.618037157555634,-74.0633870396224,Quebec,QC00329
Club de Golf Fauvel,,,,,,,,,,,,,,,,,,,,,,,,,,,,,,,,,,,,,,,,,,,,,,,,,,505771.9727226965,48.012904409766065,-65.43050394428839,Quebec,QC00384
Club de Golf du Lac Carling,,golf,,,,,,,,,,,NRCan-CanVec-10.0,,,,,,,,,,,,,,,,,,,,,,,,,,,,,,,,,,,,,503973.62467361195,45.74736010469933,-74.52234917214459,Quebec,QC00297
Balmoral Golf Club,,,,,,,,,,,,,,,,,,,,,,,,,,,,,,,,,,,,,,,,,,,,,,,,,,500380.92674098455,45.89356701543252,-74.22700597928734,Quebec,QC00320
Club de golf Revermont,,golf,,,,,chemin du Golf,Amqui,146,G5J 2A7,Quebec,,NRCan-CanVec-8.0,,,,,,,,,,,,,,,,Q99409807,,,,,,,,,,,,,,,,,,,,,497895.92191951536,48.44422694508883,-67.3915479885345,Quebec,QC00258
Club de golf le Chantecler,,golf,,,,,,,,,,,NRCan-CanVec-10.0,,,,,,,,,,,,,,,,,,,,,,,,,,,,,,,,,,,,,497694.3006478518,45.96011437374146,-74.16346553575657,Quebec,QC00286
Club de Golf de la Vallée Des Forts,,,,,,,,,,,,,,,,,,,,,,,,,,,,,,,,,,,,,,,,,,,,,,,,,,497425.870208443,45.247162989286494,-73.30192792551433,Quebec,QC00397
Golf Oasis,,golf,,,,,,,,,,,NRCan-CanVec-10.0;NRCan-CanVec-7.0,,,,,,,,,,,,,,,,,,,,,,,,,,,,,,,,,,,,,496051.2587733228,45.680368689506324,-74.37749982115754,Quebec,QC00284
Club de Golf de Beloeil,,golf,,,,,,,,,,,,,,,,,,,,,,,,,,,,,,,,,,,,,,,,,,,,,,,,496051.098824045,45.56318722719233,-73.21605180257386,Quebec,QC00128
Club de Golf Alpin,,golf,,,,,,,,,,,NRCan-CanVec-7.0,,,,,,,,,,,,,,,,,,,,,,,,,,,,,,,,,,,,,494924.11789582355,46.99305795164801,-71.20534300931557,Quebec,QC00218
Club de Murray Bay,,golf,,,,,,,,,,,NRCan-CanVec-7.0,,,,,,,,,,,,,,,,,,,,,,,,,,,,,,,,,,,,,494323.81776587834,47.64669618619238,-70.15844907497645,Quebec,QC00228
Le Saint-Rémi,,golf,,,,,,,,,,,,,,,,https://www.golfstremi.com/,,Club de golf Le Saint-Rémi,,,,,,,,,,,+1 418 289-2644,,,,,,,,,,,,,,,,,,,487712.5443027296,46.85334412692777,-72.45111345330028,Quebec,QC00226
Golf Saint-Prime Sur Le Lac,,,,,+1 418 251-2831,https://www.golfstprime.qc.ca/,Rue Principale,Saint-Prime,776,G8J1T9,QC,,,,,,,,,,,,,,,,18_hole,,,,,,,,,,,,,,,,,,,,,,,486313.4522590005,48.60492015855393,-72.33807543479325,Quebec,QC00343
Club de golf Saint-Jean,,golf,,,,,,,,,,,CanVec 6.0 - NRCan,,,,,,,,,,,,,,,,,,,,,,,,,,,,,,,,,,,,,484048.2531229859,45.280992574202074,-73.26438654131236,Quebec,QC00264
Golf le Cardinal,,golf,,,,,,,,,,,,,,,,,,,,,,,,,,,,,,,,,,,,,,,,,,,,,,,,482492.4533868073,45.536382070286265,-73.84924999476078,Quebec,QC00134
Club de Golf Val-Morin,,golf,,,,,,,,,,,NRCan-CanVec-10.0,,,,,,,,,,,,,,,,,,,,,,,,,,,,,,,,,,,,,482086.51016135217,46.00037857788423,-74.17045647064677,Quebec,QC00288
Club de Golf Métropolitain Anjou,,,,,,,,,,,,,,,,,,,,,,,,,,,,,,,,,,,,,,,,,,,,,,,,,,479934.939964931,45.627338138309575,-73.56598868933985,Quebec,QC00304
Club de Golf Estérel,,,,,,,,,,,,,,,,,,,,,,,,,,,,,,,,,,,,,,,,,,,,,,,,,,478519.6841735934,46.03998102389375,-74.02160259476844,Quebec,QC00333
Club de Golf de Coaticook,,golf,,,,,,,,,,,NRCan-CanVec-7.0,,,,,,,,,,,,,,,,,,,,,,,,,,,,,,,,,,,,,478393.69815805956,45.112656417141615,-71.8133834287003,Quebec,QC00208
Club de golf Vallée de la Lièvre,,golf,,,,,,,,,,,NRCan-CanVec-7.0,,,,,,,,,,,,,,,,,,,,,,,,,,,,,,,,,,,,,478134.68461457174,46.56591679363013,-75.4084881279993,Quebec,QC00204
Club de golf Banlieue Ouest,,golf,,,,,,,,,,,NRCan-CanVec-7.0,,,,,,,,,,,,,,,,,,,,,,,,,,,,,,,,,,,,,473839.27643839095,45.2437202023,-74.25827715695245,Quebec,QC00294
Club De Golf Les Cedres,,golf,,,,,Rue Coupland,,669,,,,,,,,,,,,,,,,,,,,,,,,,,,,,,,,,,,multipolygon,,,,,,472315.54379170865,45.364065041631065,-72.67144431472227,Quebec,QC00039
Club & Hotel Du Golf Nominique,,golf,,,,,,,,,,,NRCan-CanVec-7.0,,,,,,,,,,,,,,,,,,,,,,,,,,,,,,,,,,,,,470980.6358007358,46.39213146550452,-75.01824417695373,Quebec,QC00215
Club de Golf Chaudière,,golf,,,,,,,,,,,,,,,,,,,,,,,,,,,,,,,,,,,,,,,,,,multipolygon,,,,,,469662.80346763594,45.40632490705747,-75.77535843814508,Quebec,QC00026
Club de Golf St-Pacôme,,golf,,,,,,,,,,,NRCan-CanVec-7.0,,,,,,,,,,,,,,,,,,,,,,,,,,,,,,,,,,,,,468320.6837821101,47.4109836998466,-69.95745352042742,Quebec,QC00180
Club de Golf Saint-Michel-Des-Saints,,,,,,,,,,,,,,,,,,,,,,,,,,,,,,,,,,,,,,,,,,,,,,,,,,466931.9940931477,46.678956542877366,-73.90659818015818,Quebec,QC00346
Club de golf Le Marthelinois,,golf,,,,,,,,,,,,,,,,,,,,,,,,,,,,,,,,,,,,,,,,,,,,,,,,465878.0638399559,46.384146456789914,-72.50579411532071,Quebec,QC00312
Country Club de Montréal,,,,,,,,,,,,,,,Country Club of Montreal,,,,,,,,,,,,,Country Club de Montréal,,,,,,,,,,,,,,,,,,,,,,462392.9951847118,45.48498251469573,-73.49568055567953,Quebec,QC00103
Club de Golf de Chandler,,,,,,,Rue Commerciale Ouest,,200,,,,,,,,,,,,,,,,,,,,,,,,,,,,,,,,,,,,,,,,,461525.44429581985,48.34443410652459,-64.6920925487485,Quebec,QC00375
Club de golf du Mont-Orford,,golf,,,,,,,,,,SEPAQ,Bing,,,,,,,,,,,,,,,,,,,,,,,,,,,,,,,multipolygon,,,,,,459085.4125349747,45.319603281138534,-72.18544639472603,Quebec,QC00054
Club De Golf Ormstown,,golf,,,,,,,,,,,NRCan-CanVec-7.0,,,,,,,,,,,,,,,,,,,,,,,,,,,,,,,,,,,,,452159.5403776972,45.05624579035741,-73.98260806321093,Quebec,QC00399
Club de Golf Sherbrooke,,,,,,,,,,,,,,,,,,,,,,,,,,,,,,,,,,,,,,,,,,,,multipolygon,,,,,,451348.37167308485,45.411692899355565,-71.92468697642063,Quebec,QC00044
Golf de Chambly (FERMÉ),,,,,,,Rue Martel,Carignan,2466,,,,,,,,,,,,,,,,,,,,,,,,,,,yes,,,,,,,,,,,,,,449797.49896930344,45.46436819129148,-73.29909604699077,Quebec,QC00351
Club de Golf le Grand Héron,,,,,,,,,,,,,,,,,,,,,,,,,,,,,,,,,,,,,,,,,,,,multipolygon,,,,,,445422.5656879968,46.27268523340692,-70.59464349830124,Quebec,QC00038
Warwick,,golf,,,,,,,,,,,NRCan-CanVec-7.0,,,,,,,,,,,,,,,,,,,,,,,,,,,,,,,,,,,,,439609.058894098,45.93338097803421,-72.0064733150598,Quebec,QC00181
Golf Sainte-Rose,,,,,,,,,,,,,,,,,,,,,,,,,,,,,,,,,,,,,,,,,,,,,,,,,,437974.27757985954,45.59396499625743,-73.82030988580382,Quebec,QC00316
Club De Golf de Knowlton,,golf,,,,,,,,,,,NRCan-CanVec-7.0,,,,,,,,,,,,,,,,,,,,,,,,,,,,,,,multipolygon,,,,,,436348.44153615175,45.229999063994896,-72.48216741850307,Quebec,QC00082
Club de golf Douville,,golf,,,,,,,,,,,NRCan-CanVec-7.0,,,,,,,,,,,,,,,,,,,,,,,,,,,,,,,,,,,,,434429.57394743164,45.61535439858352,-72.97747090494718,Quebec,QC00198
Golf Dallaire,,,,,,,,,,,,,,,,,,,,,,,,,,,,,,,,,,,,,,,,,,,,multipolygon,,,,,,432727.31954256725,48.224088596964855,-79.03427595184654,Quebec,QC00053
Club de Golf Rivière-Rouge,,golf,,,,,,,,,,,NRCan-CanVec-7.0,,,,,,,,,,,,,,,,,,,,,,,,,,,,,,,,,,,,,421994.5615883018,45.313628182025575,-74.20097880710927,Quebec,QC00171
Club de Golf Algonquin,,golf,,,,,,,,,,,NRCan-CanVec-7.0,,,,,,,,,,,,,,,,,,,,,,,,,,,,,,,multipolygon,,,,,,419622.59824605024,46.271277722964946,-76.00796651359768,Quebec,QC00067
Rawdon Golf Resort,,golf,,,,,,,,,,,NRCan-CanVec-7.0,,,,,,,,,,,,,,,,,,,,,,,,,,,,,,,multipolygon,,,,,,419418.0099716229,46.05872261136589,-73.69983300929921,Quebec,QC00042
Boule rock golf club,,golf,,,+1-866-936-3407,https://golfboulerock.com/,Route 132,Métis-sur-Mer,164,G0J 1S0,,company,NRCan-CanVec-7.0,,,,,,,,,,,,,,,,,,,,,,,,,,,,,,,multipolygon,,,,,,418468.3781650252,48.67479977573027,-67.97298255567925,Quebec,QC00060
Le golf les Vieilles Forges,,golf,,,,,,,,,,,NRCan-CanVec-7.0,,,,,,,,,,,,,,,,,,,,,,,,,,,,,,,,,,,,,417209.4530870067,46.38606110996815,-72.65261678948343,Quebec,QC00189
Club de Golf Saint-Jérôme,,golf,,,,,,,,,,,CanVec 6.0 - NRCan,,,,,,,,,,,,,,,,,,,,,,,,,,,,,,,,,,,,,416509.3109831527,45.82915163420562,-74.06823004002308,Quebec,QC00158
Golf Le Géant,,golf,,,,,,,,,,,NRCan-CanVec-10.0,,,,,,,,,,,,,,,,,,,,,,,,,,,,,,,multipolygon,,,,,,416249.2067544653,46.200104115493104,-74.58937439702795,Quebec,QC00070
Club de Golf du Lac Lyster,,,,,,,,,,,,,,,,,,,,,,,,,,,,,,,,,,,,,,,,,,,,,,,,,,412292.34736633324,45.012103224555354,-71.90138863399073,Quebec,QC00331
Golf La Vallée de Sainte-Adèle,,,,,,,,,,,,,Bing,,,,,,,,,,,,,,,,,,,,,,,,,,,,,,,,,,,,,410550.11215809453,45.947891850245355,-74.11734487743868,Quebec,QC00322
Golf Le Maître De Mont Tremblant,,,,,,,,,,,,,,,,,,,,,,,,,,,,,,,,,,,,,,,,,,,,,,,,,,410454.85334174475,46.14718131813325,-74.59453660495538,Quebec,QC00338
Club de Golf Boucherville,,,,,,,,,,,,,,,,,,,,,,,,,,,,,,,,,,,,,,,,,,,,,,,,,,407183.69046486163,45.58150398602844,-73.43808463908675,Quebec,QC00120
Club de Golf Metropolitain,,,,,,,,,,,,,,,,,,,,,,,,,,,,,,,,,,,,,,,,,,,,,,,,,,405811.13947406126,46.82444853968051,-71.3749143204321,Quebec,QC00105
Club de Golf de Matane,,,,,,,,,,,,,,,,,,,,,,,,,,,,,,,,,,,,,,,,,,,,,,,,,,401522.806648387,48.81681533363018,-67.52862597958689,Quebec,QC00389
Club de Golf Des Pins,,golf,,,,,Route Philomène-Thibodeau,Saint-Alban,1140,,,,NRCan-CanVec-7.0,,,,,,,,,,,,,,,,,,,,,,,,,,,,,,,,,,,,,401269.7893849981,46.74843477265625,-72.04052697105537,Quebec,QC00209
Québec City,,,,,,,,,,,,,,,,,,,,,,,,,,,,,,,,,,,,,,,,,,,,,,,,,,396395.58859393577,46.787938252042245,-71.36470391889353,Quebec,QC00263
Club De Golf Baie Missisquoi,,golf,,,,,,,,,,,NRCan-CanVec-7.0,,,,,,,,,,,,,,,,,,,,,,,,,,,,,,,,,,,,,394807.09029875736,45.080746511351684,-73.16004167727078,Quebec,QC00246
Club de Golf Godefroy,,golf,,,,,Boulevard Bécancour,Bécancour,17500,G9H 1A4,QC,,,,,,,,,,,,,,,,,,,,,,,,,,,,,,,,,,,,,,,394649.7989300322,46.305576664362626,-72.53971620599684,Quebec,QC00192
Lafleur Golf Course,,golf,,,,,,,,,,,NRCan-CanVec-10.0,,,,,,,,,,,,,,,,,,,,,,,,,,,,,,,,,,,,,392846.89202146203,45.3752146241299,-73.66529354827804,Quebec,QC00274
Club de golf Beaconsfield,,,,,+1-514-695-2661,https://www.beaconsfieldgolfclub.ca/,Avenue du Golf,,49,H9S 4N6,,,,,Beaconsfield Golf Course,,,,,,,,,,,,,Club de golf Beaconsfield,,,,,,,,,Pointe Claire,wlan,,,,,,,,,,,,388937.2810524988,45.4348829888128,-73.82843541272948,Quebec,QC00088
Chute-aux-Outardes,,golf,,,,,,,,,,,CanVec 6.0 - NRCan,,,,,,,,,,,,,,,,,,,,,,,,,,,,,,,,,,,,,387097.57346127887,49.1372014327237,-68.40182997812167,Quebec,QC00155
Unknown Golf Course,,golf,,,,,,,,,,,,,,,,,,,,,,,,,,,,,,,,,,,,,,,,,,multipolygon,,,,,,386171.24966772436,45.68881250069519,-72.81654916117958,Quebec,QC00037
Club De Golf Sainte-Béatrix,,,,,,,,,,,,,,,,,,,,,,,,,,,,,,,,,,,,,,,,,,,,,,,,,,379335.07830112765,46.20262334995428,-73.61374408280871,Quebec,QC00352
Ancien Club de golf Mascouche (FERMÉ),,,,,,,,,,,,,,,,,,,,,,,,,,,,,,,,,,,,,,,,,,,,,,,,,,372055.1487304844,45.74297006494799,-73.64001075323188,Quebec,QC00111
Club de golf Les Rochers Bleus,,golf,,,,,,,,,,,NRCan-CanVec-7.0,,,,,,,,,,,,,,,,,,,,,,,,,,,,,,,multipolygon,,,,,,370670.3912884379,45.12898196630436,-72.62709238585354,Quebec,QC00072
Club de Golf Vaudreuil,,golf,,,,,Rang Saint-Antoine,Vaudreuil-Dorion,1126,,QC,,,,,,,,,,,,,,,,,,,,,,,,,,,,,,,,,,,,,,,366515.9119574232,45.3516699652592,-74.01966554061262,Quebec,QC00170
Club de Golf Pontefract,,,,,,http://pontefractgolf.ca,,,,,,,,,,,,,,,,,,,,,,,,,,,,,,,,,,,,,,,,,,,,365148.8067960431,45.89660753823141,-76.68283149765323,Quebec,QC00360
Club de Golf Saint-Janvier,,,,,,,,,,,,,,,,,,,,,,,,,,,,,,,,,,,,,,,,,,,,,,,,,,364961.22245658014,45.72588418227306,-73.85646362362245,Quebec,QC00273
Golf Rougemont,,,,,,,,,,,,,,,,,,,,,,,,,,,,,,,,,,,,,,,,,,,,multipolygon,,,,,,359946.4030639594,45.43631027895642,-73.09123329122089,Quebec,QC00036
Club de golf Thurso,,,,,,,,,,,,,,,,,,,,,,,,,,,,,,,,,,,,,,,,,,,,,,,,,,355729.91045283043,45.62891747536793,-75.27054787570965,Quebec,QC00315
Mystic Pines Golf & Country Club,,,,,,https://www.mysticpinesgolf.com/,,,,,,,,,,,,,,,,,,,,,,,,,,,,,,,,,,,,,,multipolygon,,,,,,351927.29351995967,45.37664675362658,-73.71185730832265,Quebec,QC00081
Club de Golf Dolbeau,,,,,,,,,,,,,,,,,,,,,,,,,,,,,,,,,,,,,,,,,,,,,,,,,,349641.96470413805,48.87176198585865,-72.21422435317255,Quebec,QC00358
Cascade Golf & Tennis Club,,,,,,,,,,,,,,,,,,,,,,,,,,,,,,,,,,,,,,,,,,,,multipolygon,,,,,,349372.12144638045,48.670655589879246,-67.98443992135377,Quebec,QC00087
Club de Golf de Valcourt,,golf,,,,https://www.golfvalcourt.com,Rue Champêtre,Valcourt,1000,J0E 2L0,Quebec,,Bing,,,,,,,,,,,,,,,,,,,,,,,,,,,,,,,,,,,,,348656.0081790056,45.49313014117886,-72.29889095136883,Quebec,QC00141
Chibougamau,,,,,,,,,,,,,,,,,,,,,,,,,,,,,,,,,,,,,,,,,,,,,,,,,,340400.71444253885,49.91896548495159,-74.38014170207526,Quebec,QC00353
Club de Golf de la Presqu'île,,,,,,,,,,,,,,,,,,,,,,,,,,,,,,,,,,,,,,,,,,,,,,,,,,329958.0970091059,45.81172064748509,-73.46915940663955,Quebec,QC00238
Club de Golf Base de Roc,,,,,,,,,,,,,,,,,,,,,,,,,,,,,,,,,,,,,,,,,,,,,,,,,,329038.47378204623,45.9910575369306,-73.38882807758434,Quebec,QC00328
Rouyn-Noranda,,golf,,,,,,,,,,,NRCan-CanVec-10.0,,,,,,,,,,,,,,,,,,,,,,,,,,,,,,,multipolygon,,,,,,328072.3452817577,48.2631030238134,-79.000177105536,Quebec,QC00061
Club de Golf & Curling la Tuque,,golf,,,,,,,,,,,NRCan-CanVec-7.0,,,,,,,,,,,,,,,,,,,,,,,,,,,,,,,,,,,,,326498.1697300763,47.435782051738684,-72.79023355110698,Quebec,QC00231
Golf des Lacs,,,,,,,,,,,,,,,,,,,,,,,,,,,,,,,,,,,,,,,,,,,,,,,,,,321794.8855853469,45.314775064794745,-72.69947722309975,Quebec,QC00332
Club de golf l'Express,,,,,,,,,,,,,,,,,,,,,,,,,,,,,,,,,,,,,,,,,,,,,,,,,,321041.79099482717,45.38884790020678,-73.42534497458664,Quebec,QC00380
Le Chateau Montebello Club De Golf,,golf,,,,,,,,,,,NRCan-CanVec-10.0,,,,,,,,,,,,,,,,,,,,,,,,,,,,,,,multipolygon,,,,,,317601.53699268633,45.6530151264713,-74.95613500658249,Quebec,QC00023
Le Ricochet,,golf,,,,,,,,,,,,,,,,,,,,,,,,,,,,,,,,,,,,,,,,,,,,,,,,312441.8287506728,48.41570979573223,-71.01957813765182,Quebec,QC00118
Golf Rivière Beaudette,,golf,,,,,,,,,,,NRCan-CanVec-7.0,,,,,,,,,,,,,,,,,,,,,,,,,,,,,,,,,,,,,306709.52497590036,45.22898894128795,-74.34236100433364,Quebec,QC00254
Club de Golf de Murdochiville,,golf,,,,,,,,,,,NRCan-CanVec-8.0,,,,,,,,,,,,,,,,,,,,,,,,,,,,,,,,,,,,,282678.46248219133,48.93264776998753,-65.41012206975518,Quebec,QC00257
Amos,,golf,,,,,,,,,,,Bing,,,,,,,,,,,,,,,,,,,,,,,,,,,,,,,,,,,,,282553.35782917007,48.54965345065809,-78.12559622933624,Quebec,QC00295
Club de Golf Les Arpents Verts,,,,,,,,,,,,,Yahoo,,,,,,,,,,,,,,,,,,,,,,,,,,,,,,,,,,,,,280298.58653669216,45.60472545737108,-73.27306878797883,Quebec,QC00126
Club de golf Quévillon,,golf,,Mo-Sa,+1-819-755-3274,,Boulevard Quévillon,Lebel-sur-Quévillon,1019,J0Y 1X0,Québec,Ville de Lebel-sur-Quévillon,NRCan-CanVec-10.0,,,,,,,,golflsq@gmail.com,,,,,,,,,,,,,,,,,,,,,,,,,,,https://www.facebook.com/ClubDeGolfQuevillon/,,279416.46480517386,49.04083472538793,-76.98094575019853,Quebec,QC00298
Chibougamau,,golf,,,,,,,,,,,NRCan-CanVec-10.0,,,,,,,,,,,,,,,,,,,,,,,,,,,,,,,,,,,,,279138.1205883403,49.97055973104918,-74.3554420842478,Quebec,QC00296
Club De Golf Matagami,,golf,,,,,,,,,,,NRCan-CanVec-10.0,,,,,,,,,,,,,,,,,,,,,,,,,,,,,,,,,,,,,278273.70032611245,49.77116491030059,-77.63700091721418,Quebec,QC00369
Club de Golf de Malartic,,golf,,,,,,,,,,,NRCan-CanVec-10.0,,,,,,,,,,,,,,,,,,,,,,,,,,,,,,,multipolygon,,,,,,276514.3688053255,48.14184367163944,-78.11467607251713,Quebec,QC00079
Club de golf de Cacouna,,golf,,,,,,,,,,,NRCan-CanVec-7.0,,,,,,,,,,,,,,,,,,,,,,,,,,,,,,,,,,,,,276315.30023308133,47.918615097297234,-69.48900035591595,Quebec,QC00176
Club De Golf Ville Marie,,,,,,,,,,,,,,,,,,,,,,,,,,,,,,,,,,,,,,,,,,,,,,,,,,275739.46318471263,47.29245340825911,-79.43389149331108,Quebec,QC00387
Golf Exécutif Montréal,,,,,,,Boulevard de la Forêt,Montréal,999,H3E 1X9,QC,Golf Exécutif Montréal,bing,,,,,,,Golf Île des Soeurs,,,,,,,,,,,,,,,,,,,,,,,,,,,,,,270445.1787985973,45.45157651646208,-73.55705526450231,Quebec,QC00259
Club de Golf Les Ruisseaux,,golf,,,,,,,,,,,NRCan-CanVec-10.0,,,,,,,,,,,,,,,,,,,,,,,,,,,,,,,,,,,,,270280.8002519108,46.10780905654711,-74.51765880741677,Quebec,QC00289
Club de Golf de Carleton-sur-Mer,,,,,,,,,,,,,,,,,,,,,,,,,,,,,,,,,,,,,,,,,,,,,,,,,,269668.6471843139,48.09592941485399,-66.09205648073748,Quebec,QC00361
Island Brae Golf Club,,,,,,,Route 148,L'Isle-aux-Allumettes,7388,,,,,,,,,,,,,,,,,,,,,,,,,,,,,,,,,,,,,,,,,269103.74132785824,45.811504567115314,-77.04351017656045,Quebec,QC00301
Trout River Golf Club,,,,,,http://golftroutriver.com/en/,,,,,,,NRCan-CanVec-7.0,,,,,,,,,,,,,,,,,,,,,,,,,,,,,,,multipolygon,,,,,,257793.3517340497,44.99979080007568,-74.30890792931261,Quebec,QC00071
Pont-Rouge,,golf,,,,,,,,,,,NRCan-CanVec-7.0,,,,,,,,,,,,,,,,,,,,,,,,,,,,,,,,,,,,,255017.1126774652,46.76528169208962,-71.62036470131108,Quebec,QC00223
Golf Orléans,,golf,,,,,,,,,,,NRCan-CanVec-7.0,,,,,,,,,,,,,,,,,,,,,,,,,,,,,,,,,,,,,254059.62461926037,46.85011195221,-71.13195208426143,Quebec,QC00217
Club de Golf Transcontinental,,,,,,,,,,,,,,,,,,,,,,,,,,,,,,,,,,,,,,,,,,,,,,,,,,249421.0020928971,47.50710254302864,-69.29014030566216,Quebec,QC00368
Club de golf Monty,,,,,,,,,,,,,,,,,,,,,,,,,,,,,,,,,,,,,,,,,,,,,,,,,,248111.62072593597,45.81120090648081,-72.43627172666899,Quebec,QC00364
Golf Le Diable,,,,,,,,,,,,Station Mont Tremblant,,,,,,,,,,,,,,,,,,,,,,,,,,,,,,,,,,,,,,247774.03400606327,46.18000341633711,-74.60306944657027,Quebec,QC00339
Club de Golf Le Domaine,,golf,,,+1 (819) 535-3925,,Rue Principale,Saint-Boniface,1095,G0X 2L0,Québec,Club de Golf Le Domaine,NRCan-CanVec-7.0,,,,,,,,,,,,,,,,,,,,,,,,,,,,,,,,,,,,,246724.45381907155,46.48863715027747,-72.82247809422712,Quebec,QC00193
Beaconsfield,,,,,,,,,,,,,,,,,,,,,,,,,,,,,,,,,,,,,,,,,,,,,,,,,,246342.8561440286,45.443649717866606,-73.83090072861403,Quebec,QC00089
Golf Sainte-Agathe,,,,,,,,,,,,,,,,,,,,,,,,,,,,,,,,,,,,,,,,,,,,,,,,,,245521.66266531582,46.056521361217875,-74.31643044919724,Quebec,QC00395
Levis,,golf,,,,,,,,,,,NRCan-CanVec-7.0,,,,,,,,,,,,,,,,,,,,,,,,,,,,,,,,,,,,,243566.85440361832,46.663450432097044,-71.26097209884698,Quebec,QC00212
Norway Bay Golf Club (Closed),,golf,,,,https://www.norwaybaygolf.ca/,Chemin 2nd Line,,3,,,,Bing,,,,,,,,,,,,,,,,,,,,,,,,,,,,,,,,,,yes,,,243204.39393435064,45.51211336405277,-76.39845118033304,Quebec,QC00268
Club de Golf Base de Roc,,,,,,,,,,,,,,,,,,,,,,,,,,,,,,,,,,,,,,,,,,,,,,,,,,238777.94491110896,45.986979373008516,-73.39499191090046,Quebec,QC00327
Golf Club Touraine,,,,,,,Chemin Taché,Gatineau,312,J8V 3Y1,,,,,,,,,,,,,,,,,,,,,,,,,,,,,,,,,,,,Gatineau.ca/donneesouvertes 08Aug2015,,,,238066.7191772041,45.51904144314049,-75.73139703101049,Quebec,QC00344
Golf du Lac Masson,,,,,,,,,,,,,,,,,,,,,,,,,,,,,,,,,,,,,,,,,,,,multipolygon,,,,,,237138.8048204105,46.0507870069472,-74.0807711011921,Quebec,QC00034
Golf du Parc du Mont-St-Mathieu,,,,,,,3e Rang Ouest,Saint-Mathieu-de-Rioux,486,,,,,,,,,,,,,,,,,,,,,,,,,,,,,,,,,,,,,,,,,237076.27884274296,48.177740907555474,-69.01547950309254,Quebec,QC00388
Club de golf Monmorency,,golf,,,,,,,,,,,,,,,,https://www.golflemontmorency.com/,,,,,,,,,,,,,,,,,,,,,,,,,,,,,,,,237025.906589552,46.89767915855319,-71.16333100424265,Quebec,QC00100
Unknown Golf Course,,golf,,,,,,,,,,,,,,,,,,,,,,,,,,,,,,,,,,,,,,,,,,,,,,,,236969.2232317818,46.96547760084975,-71.28061150076815,Quebec,QC00114
Golf Le Diable,,,,,,,,,,,,,,,,,,,,,,,,,,,,,,,,,,,,,,,,,,,,multipolygon,,,,,,234559.6513649083,46.183264566276314,-74.59543490476521,Quebec,QC00084
Unknown Golf Course,,golf,,,,,,,,,,,NRCan-CanVec-7.0,,,,,,,,,,,,,,,,,,,,,,,,,,,,,,,,,,,,,234008.34460964942,45.15572031163365,-73.57736882404039,Quebec,QC00251
Golf au Lac St-Jean de Chambord,,,,,,,,,,,,,,,,,,,,,,,,,,,,,,,,,,,,,,,,,,,,,,,,,,230769.10567935277,48.424117929886016,-72.0626651850015,Quebec,QC00374
Sommet Du Golf,,,,,,,,,,,,,,,,,,,,,,,,,,,,,,,,,,,,,,,,,,,,multipolygon,,,,,,229584.31224829878,45.6246466901433,-71.59190411283384,Quebec,QC00065
Mont-Tremblant,,golf,,,,,,,,,,,,,,,,,,,,,,,,,,,,,,,,,,,,,,,,,,multipolygon,,,,,,228147.97294824844,46.16821464348249,-74.6123046282271,Quebec,QC00050
Club de Golf Alpine,,golf,,,,,,,,,,,NRCan-CanVec-10.0,,,,,,,,,,,,,,,,,,,,,,,,,,,,,,,,,,,,,227912.42956620286,45.9863808415353,-74.12472268395993,Quebec,QC00287
Mickey Creek Golf Club,,,,,,http://mickeycreek.com/,McCoshen Road,Vinton,45,,,,Bing,,,,,,,,,,,,,,,,,,,,,,,,,,,,,,,,,,,,,224750.13665616684,45.793067705940665,-76.6072426801445,Quebec,QC00267
Club de Golf d'Oka,,golf,,,,,,,,,,,NRCan-CanVec-7.0,,,,,,,,,,,,,,,,,,,,,,,,,,,,,,,,,,,,,223816.2131476362,45.46675956338502,-74.0944129909578,Quebec,QC00172
Larrimac Golf Club,,,,,,,Route 105,Chelsea,1148,J9B 1P4,,,,,,,,,,,,,,,,,,,,,,,,,,,,,,,,,,multipolygon,,,,,,222927.12394611168,45.553757234417446,-75.8272112744104,Quebec,QC00025
Club de golf de North-Hathley,,golf,,,,,,,,,,,CanVec 4.0 - NRCan,,,,,,,,,,,,,,,,,,,,,,,,,,,,,,,,,,,,,221763.77737687534,45.26430204669832,-71.9755953514866,Quebec,QC00138
Como Golf Club,,golf,,,,,Rue Como Golf,Hudson,10,,QC,,,,Como Golf Club,,,,,,,,,,,,,Club de golf Como,,,,,,,,,,,,,,,,,,,,,,220899.351657885,45.44433205184084,-74.12624840550042,Quebec,QC00173
2-26 Chem. de l'Écho,,golf,,,,,,,,,,,,,,,,,,,,,,,,,,,,,,,,,,,,,,,,,,,,,,,,220474.75879985918,46.967109329715086,-71.272365379983,Quebec,QC00115
Golf Hermitage,,golf,,,,,,,,,,,NRCan-CanVec-7.0,,,,,,,,,,,,,,,,,,,,,,,,,,,,,,,,,,,,,219590.2289600054,45.22811409053242,-72.18660262089413,Quebec,QC00229
Golf 9Chatel,,,,,,,Rue Élisabeth-II,Québec,10910,,QC,,,,,,,,Neufchatel,Golf NeufChatel,,,,,,,,,,,,,,,,,,,,,,,,,,,,,,218382.71661468106,46.8626520262686,-71.32348325051885,Quebec,QC00102
Richmond Golf Club,,golf,,,,,,,,,,,CanVec 6.0 - NRCan,,,,,,,,,,,,,,,,,,,,,,,,,,,,,,,,,,,,,214902.83127744205,45.65243515184177,-72.15364370240046,Quebec,QC00157
Golf Saint-Lazare,,,,,,,,,,,,,,,,,,,,,,,,,,,,,,,,,,,,,,,,,commercial,permanently closed except miniature golf,no,,,,,,,213987.65442711924,45.38499666868448,-74.08334078565304,Quebec,QC00293
Club de golf Monmorency,,golf,,,,,,,,,,,,,,,,,,,,,,,,,,,,,,,,,,,,,,,,,,,,,,,,212274.2835943632,46.89361442584,-71.15663826885002,Quebec,QC00099
Golf & Ski Vieux-Lennox,,golf,,,,https://golf.ubishops.ca/,Rue du Golf,Sherbrooke,19,,QC,,,,Old-Lennox Golf & Ski,,,,Lennoxville,,,,,,,,,Golf & Ski Vieux-Lennox,,,,,,,,,,,,,,,,,,,,,,208997.4421482221,45.35980765122678,-71.8475023720652,Quebec,QC00381
Golf Le Maître De Mont Tremblant,,golf,,,,,,,,,,,,,,,,,,,,,,,,,,,,,,,,,,,,,,,,,,,,,,,,204897.01199297758,46.14256707586124,-74.5990472278162,Quebec,QC00335
Club de Golf Inverugie,,,,,,,,,,,,,,,,,,,,,,,,,,,,,,,,,,,,,,,,,,,,,,,,,,203934.585854471,45.13601201934797,-72.24269430392485,Quebec,QC00383
Club De Golf L'Emeraude,,golf,,,,,,,,,,,NRCan-CanVec-7.0,,,,,,,,,,,,,,,,,,,,,,,,,,,,,,,,,,,,,202897.28625531757,45.93305828439165,-72.6094264085869,Quebec,QC00184
Club de Golf St-Lambert,,,,,,,Rue Golf,Saint-Lambert,325,,,,,,,,,,,,,,,,,,,,,,,,,,,,,,,,,,,multipolygon,,,,,,202179.67789568452,45.50658060717995,-73.49952273969585,Quebec,QC00041
Senneville,,,,,,,,,,,,,,,,,,,,,,,,,,,,,,,,,,,,,,,,,,,,,,,,,,196467.63282599114,45.436842139051215,-73.96168204167381,Quebec,QC00390
Golf St. Gerard des Laurentides,,golf,,,+1 819 5399907,https://lelaurentides.com,Chemin des Bouleaux,Shawinigan,651,G9R 1T1,Québec,Golf St. Gerard des Laurentides,NRCan-CanVec-7.0,,,,,,,,,,,,,,,,,,,,,,,,,,,,,,,multipolygon,,,,,CA,196109.55639438896,46.600803272552746,-72.8276343524576,Quebec,QC00063
Club de Golf Mont St-Grégoire,,golf,,,,,,,,,,,NRCan-CanVec-7.0,,,,,,,,,,,,,,,,,,,,,,,,,,,,,,,,,,,,,195747.29839742143,45.351064003807096,-73.18893386565391,Quebec,QC00242
Club De Golf Embo,,golf,,,,,,,,,,,NRCan-CanVec-10.0,,,,,,,,,,,,,,,,,,,,,,,,,,,,,,,multipolygon,,,,,,194903.80554328015,48.32823847312336,-79.0422100419701,Quebec,QC00056
Club De Golf Waterville,,golf,,,,,,,,,,,CanVec 4.0 - NRCan,,,,,,,,,,,,,,,,,,,,,,,,,,,,,,,,,,,,,193386.55877942636,45.272495242043775,-71.88630773427086,Quebec,QC00137
Unknown Golf Course,,,,,,,,,,,,,Bing,,,,,,,,,,,,,,,,,,,,,,,,,,,,,,,,,,,,,191842.1569608994,45.01137772733116,-73.41475740648781,Quebec,QC00256
Pine Lodge Golf Course,,golf,,,,https://www.pine-lodge.ca/golf.htm,Pine Lodge Road,,6,,,,Bing,,,,,,,,,,,,,,,,,,,,,,,,,,,,,,,,,,,,,185917.55483887103,45.525644699314526,-76.45400127381713,Quebec,QC00269
Club de Golf Siscoe,,,,,+1-819-824-4631,https://golfsiscoe.com/,Chemin Siscoe,Val-d'Or,472,J9P 0B9,Québec,,,,Siscoe Golf Club,,,,,,info@golfsiscoe.com,,,,,,,,,,,,,,,,,,,,,,,,,,,,,181068.4425672377,48.139657896684824,-77.875084245402,Quebec,QC00405
Golf de Maniwaki,,,,,,,,,,,,,,,,,,,,,,,,,,,,,,,,,,,,,,,,,,,,,,,,,,180935.63708607916,46.383309042539636,-75.97176317763599,Quebec,QC00216
Golf Beauport,,golf,,,,,Rue Blanche-Lamontagne,,2080,,,,,,,,,,,,,,,,,,,,,,,,,,,,,,,,,,,,,,,,,180926.6350148413,46.8695060556443,-71.21504737791838,Quebec,QC00101
Golf De La Maskinonge (Le),,,,,,,,,,,,,,,,,,,,,,,,,,,,,,,,,,,,,,,,,,,,,,,,,,177353.65040909572,46.11331328884415,-74.8458599055089,Quebec,QC00337
Dunany Country Club,,,,,+1 450 5624885,https://www.dunanycountryclub.com,,,,,,,,,,,,,,,dunanycountryclub@gmail.com,,,,,,,,,,,,,,,,,,,,,,,multipolygon,,,,,,175856.74552693154,45.74480757326945,-74.33268598835708,Quebec,QC00064
Club de Golf des Îles-de-la-Madeleine,,,,,,,,,,,,,,,,,,,,,,,,,,,,,,,,,,,,,,,,,,,,multipolygon,,,,,,173587.0203208874,47.36187805955969,-61.94559900664411,Quebec,QC00076
Domaine Bonaventure,,,,,,,,,,,,,,,,,,,,,,,,,,,,,,,,,,,,,,,,,,,,,,,,,,170357.58634374643,45.671831057493286,-73.96630239401146,Quebec,QC00386
Mohawk Hills Golf Course,,golf,,,,,,,,,,,NRCan-CanVec-10.0,,,,,,,,,,,,,,,,,,,,,,,,,,,,,,,,,,,,,169794.9436453144,45.3735542856936,-73.66033659397428,Quebec,QC00275
Club De Golf Donnacona,,golf,,,,,,,,,,,NRCan-CanVec-7.0,,,,,,,,,,,,,,,,,,,,,,,,,,,,,,,,,,,,,168682.6307493413,46.67089566951417,-71.7341643841005,Quebec,QC00213
Club De Golf Miner,,golf,,,,,Rue Long,Granby,30,,,,CanVec 6.0 - NRCan,,,,,,,,,,,,,,,,,,,,,,,,,,,,,,,,,,,,,155395.62064437964,45.392580994278475,-72.720680712117,Quebec,QC00147
Club de golf municipal de Montréal,,,,,+1-514-872-4653,http://www1.ville.montreal.qc.ca/banque311/content/golf-municipal-de-montr%C3%A9al-et-centre-de-pratique,Boulevard Viau,Montréal,4235,H1Y 2G3,,,,,,,,,,,,,,,,,,,,,,,,,,,,,+1-514-872-GOLF,,,,,,,,,,,144580.3368594356,45.56937673676482,-73.55801018542338,Quebec,QC00093
Saint-Jean-sur-Richelieu,,,,,,,,,,,,,,,,,,,,,,,,,,,,,,,,,,,,,,,,,,,,,,,,,,141218.40803492893,45.361592735452994,-73.29103147807346,Quebec,QC00323
Centre De Golf Val Des Arbres,,,,,,,,,,,,,,,,,,,,,,,,,,,,,,,,,,,,,,,,,,,,,,,,,,140818.07513023991,45.59597602514414,-73.6976459754573,Quebec,QC00363
Golf Des Moulins,,golf,,,,,,,,,,,NRCan-CanVec-10.0,,,,,,,,,,,,,,,,,,,,,,,,,,,,,,,,,,,,,138095.25187797128,45.698364567858,-73.68196083996882,Quebec,QC00276
Golf de Maniwaki,,,,,,,,,,,,,,,,,,,,,,,,,,,,,,,,,,,,,,,,,,,,,,,,,,129448.51226823842,46.384793591172794,-75.97855236412587,Quebec,QC00325
Club De Golf Pen-Y-Bryn,,golf,,,,,,,,,,,CanVec 4.0 - NRCan,,,,,,,,,,,,,,,,,,,,,,,,,,,,,,,,,,,,,125936.84458949465,45.47629313346802,-71.51303172530328,Quebec,QC00139
Unknown Golf Course,,golf,,,,,,,,,,,CanVec 6.0 - NRCan,,,,,,,,,,,,,,,,,,,,,,,,,,,,,,,,,,,,,113959.7568486257,45.74751047833827,-76.19078600688849,Quebec,QC00160
Club de Golf de Témiscaming,,,,,,,,,,,,,,,,,,,,,,,,,,,,,,,,,,,,,,,,,,,,,,,,,,109318.07946248159,46.70552250012803,-79.08788648961611,Quebec,QC00370
Saint-Georges,,golf,,,,,,,,,,,NRCan-CanVec-7.0,,,,,,,,,,,,,,,,,,,,,,,,,,,,,,,,,,,,,105917.98307901256,46.19586602502051,-70.60413463439448,Quebec,QC00188
Club de golf de l'Estrie,,,,,,,,,,,,,,,,,,,,,,,,,,,,,,,,,,,,,,,,,,,,multipolygon,,,,,,105128.41831942438,45.44711912465867,-71.93958249557438,Quebec,QC00051
Club de golf de l'Estrie,,,,,,,,,,,,,,,,,,,,,,,,,,,,,,,,,,,,,,,,,,,,multipolygon,,,,,,105128.41831942438,45.44711912465867,-71.93958249557438,Quebec,QC00052
Sainte-Sophie,,golf,,,,,,,,,,,NRCan-CanVec-10.0,,,,,,,,,,,,,,,,,,,,,,,,,,,,,,,,,,,,,99237.42418831465,45.84561743217976,-73.88195718737913,Quebec,QC00282
Golf des Érables,,,,,+1-819 827-2936,https://www.golfdeserables.com/,Chemin des Érables,Gatineau,217,J8V 3Z7,Québec,,,,,,,,,,,,,,,,,,,,,,,,,,,,,,,,,,,,,,,94034.63018923275,45.509818937119064,-75.7417124662183,Quebec,QC00378
Lachute,,,,,,,,,,,,,,,,,,,,,,,,,,,,,,,,,,,,,,,,,,,,,,,,,,93197.1517648975,45.68482060149335,-74.2768505870551,Quebec,QC00409
Club de Golf Tadoussac,,golf,,,,,,,,,,,NRCan-CanVec-7.0,,,,,,,,,,,,,,,,,,,,,,,,,,,,,,,,,,,,,91737.74848049629,48.14394997450974,-69.70636861123398,Quebec,QC00232
Sabrevois,,golf,,,,,,,,,,,NRCan-CanVec-7.0,,,,,,,,,,,,,,,,,,,,,,,,,,,,,,,,,,,,,91404.1885234561,45.241907763827236,-73.23261811226602,Quebec,QC00244
Club de golf Le Marthelinois,,golf,,,,,,,,,,,,,,,,,,,,,,,,,,,,,,,,,,,,,,,,,,,,,,,,90400.10973634341,46.387304857934765,-72.51185916224735,Quebec,QC00311
Golf Les Rivieres,,,,,,,Boulevard des Forges,Trois-Rivières,6500,G8Y 7E3,Québec,Golf Les Rivieres,,,,,grass,,,,,,,,,,,,,,,,,,,,,,,,,,,,,,,,,90338.39356046742,46.369642410335025,-72.60107711456098,Quebec,QC00404
Golf La Vallée du Rêve,,,,,+14187566008,https://www.lavalleedureve.com,4e Rang,Causapscal,46,G0J 1J0,Québec,,,,,,,,,,,,,,,,,,,,,,,,,,,,,,,,,,,,,,,86085.68251485872,48.41283186812909,-67.1757318795347,Quebec,QC00400
Gatineau,,,,,,,,,,,,,,,,,,,,,,,,,,,,,,,,,,,,,,,,,,,,,,,,,,77461.16810549768,45.519241729969266,-75.49637214066766,Quebec,QC00168
Golf Sutton,,golf,,,,,Rue Grenier,Sutton,35,,,,NRCan-CanVec-7.0,,,,,,,,,,,,,,,,,,,,,,,,,,,,,,,,,,,,,75540.65979103604,45.0977054886087,-72.61588846658934,Quebec,QC00241
Unknown Golf Course,,golf,,,,,,,,,,,NRCan-CanVec-7.0,,,,,,,,,,,,,,,,,,,,,,,,,,,,,,,,,,,,,74750.16898381802,45.01840269891532,-73.7670866851737,Quebec,QC00248
Unknown Golf Course,,,,,,,,,,,,,,,,,,,,,,,,,,,,,,private,,,,,,,,,,,,,,,,,,,,73110.6850859211,46.45931263229921,-73.65298821301259,Quebec,QC00392
Unknown Golf Course,,golf,,,,,,,,,,,NRCan-CanVec-7.0,,,,,,,,,,,,,,,,,,,,,,,,,,,,,,,,,,,,,66610.91607198435,46.19399358990189,-73.75219812538097,Quebec,QC00249
Le Pavillon Du Golf,,,,,,,,,,,,,,,,driving_range,,,,,,,,,,,,,,,,,,,,,,,,,,,,,,,,,,64275.15690773735,45.48410518896597,-75.61873874709701,Quebec,QC00371
Unknown Golf Course,,golf,,,,,,,,,,,NRCan-CanVec-7.0,,,,,,,,,,,,,,,,,,,,,,,,,,,,,,,,,,,,,62466.96623600927,45.08034755840048,-74.42383417846258,Quebec,QC00253
Val-des-Sources,,golf,,,,,,,,,,,NRCan-CanVec-7.0,,,,,,,,,,,,,,,,,,,,,,,,,,,,,,,,,,,,,55509.942823356316,45.783446980471645,-71.8931240260579,Quebec,QC00179
Club de golf La seigneurie,,,,,,,,,,,,,,,,,,,,,,,,,,,,,,,,,,,,,,,,,,,,,,,,,,54831.85877330037,45.584696786815634,-73.17451769559659,Quebec,QC00317
Patton's Glen Golfcourse,,,,,,,,,,,,,,,,,,,,,,,,,,,,,,,,,,,,,,,,,,,,,,,,,,51473.14086441919,45.394903444726644,-73.66209921744978,Quebec,QC00373
Intergolf 2022,,,,,,,,,,,,,,,,,,,,,,,,,,,,,,,,,,,,,,,,,,,,,,,,,,48434.06664254147,45.42396150129696,-72.81062768056367,Quebec,QC00403
Intergolf 2022,,,,,,,,,,,,,,,,,,,,,,,,,,,,,,,,,,,,,,,,,,,,,,,,,,48434.06664254147,45.42396150129696,-72.81062768056367,Quebec,QC00402
Saint-Jean-sur-Richelieu,,golf,,,,,,,,,,,NRCan-CanVec-7.0,,,,,,,,,,,,,,,,,,,,,,,,,,,,,,,,,,,,,45618.78271605433,45.28155573418116,-73.24863673470006,Quebec,QC00243
Champ de Pratique,,golf,,,,,,,,,,,NRCan-CanVec-7.0,,,,,,,,,,,,,,,,,,,,,,,,,,,,,,,,,,,,,44915.223850368115,46.38939348740811,-75.02513764950574,Quebec,QC00214
Sous le couvert des arbres,,,,,,http://souslecouvertdesarbres.com/,,,,,,,,,,,,,,,,,,,,,,,,,,,,,,,,,,,,,,,,,,,,44882.00694652505,45.46253622441683,-75.71359307260585,Quebec,QC00379
Piedmont,,,,,,,,,,,,,,,,driving_range,,,,,,,,,,,,,,,,,,,,,,,,,grass,,,,,,,,,38682.84437789454,45.913335706238335,-74.14530138224512,Quebec,QC00342
Sainte-Sophie,,golf,,,,,,,,,,,NRCan-CanVec-10.0,,,,,,,,,,,,,,,,,private,,,,,,,,,,,,,,,,,,,,37387.818950457164,45.792313191049196,-73.94724702959388,Quebec,QC00278
Unknown Golf Course,,golf,,,,,,,,,,,CanVec 6.0 - NRCan,,,,,,,,,,,,,,,,,,,,,,,,,,,,,,,,,,,,,34710.454825596134,45.635679325903,-71.4178252528569,Quebec,QC00156
Club De Golf Ste-Sophie,,golf,,,,,Boulevard Sainte-Sophie,,2212,,,,NRCan-CanVec-10.0,,,,,,,,,,,,,,,,,,,,,,,,,,,,,,,,,,,,,34636.80333771867,45.788293595835846,-73.94146908071403,Quebec,QC00279
Sainte-Sophie,,golf,,,,,,,,,,,NRCan-CanVec-10.0,,,,,,,,,,,,,,,,,,,,,,,,,,,,,,,,,,,,,33345.95710256921,45.84293554610943,-73.88331358992669,Quebec,QC00281
Golf Campus,,,,,,,,,,,,,,,,driving_range,grass,,,,,,,,,,,,,,,,,,,,,,,,,,,,,,,,,32884.52039618378,46.786338855838856,-71.2720830932484,Quebec,QC00260
Unknown Golf Course,,,,,,,,,,,,,,,,,,,,,,,,,,,,,,,,,,,,,,,,,,,,,,,,,,31118.56707691628,48.53850562655229,-71.29497438993252,Quebec,QC00359
Champ de Pratique du Golf,,,,,,,,,,,,,,,,,,,,,,,,,,,,,,,,,,,,,,,,,,,,,,,,,,30429.40362724008,45.06179909573502,-73.91558499235649,Quebec,QC00398
Golf Course,,,,,,,,,,,,,,,,,,,,,,,,,,,,,,,,,,,,,,,,,,,,multipolygon,,,,,,28981.89967005533,46.377445994816625,-75.02329225069774,Quebec,QC00024
Shawinigan,,,,,,,,,,,,,,,,,,,,,,,,,,,,,,,,,,,,,,,,,,,,,,,,,,27247.974634443577,46.61595779000854,-72.61385298005298,Quebec,QC00401
Golf de l'Hétrière,,,,,,,,,,,,,,,,,,,,,,,,,,,,,,,,,,,,,,,,,,,,,,,,,,26350.71971395847,46.76043285166444,-71.37877214742153,Quebec,QC00305
Club de golf de North-Hathley,,,,,,,,,,,,,,,,driving_range,,,,,,,,,,,,,,,,,,,,,,,,,,,,,,,,,,21244.23026389243,45.26518321406562,-71.97152265481324,Quebec,QC00340
Unknown Golf Course,,golf,,,,,,,,,,,CanVec 6.0 - NRCan,,,,,,,,,,,,,,,,,,,,,,,,,,,,,,,,,,,,,18645.7302666274,46.39139084106414,-73.70402771221454,Quebec,QC00161
Sainte-Anne-des-Lacs,,,,,,,,,,,,,,,,,,,,,,,,,,,,,,,,,,,,,,,,,,,,,,,,,,11805.767394361494,45.85314479306623,-74.12115806041744,Quebec,QC00376
